[{"OBJECT_NAME":"STARLINK-5271","OBJECT_ID":"2022-141AP","EPOCH":"2026-03-09T22:09:12.800448","MEAN_MOTION":15.08840066,"ECCENTRICITY":0.00012061,"INCLINATION":53.2174,"RA_OF_ASC_NODE":353.0364,"ARG_OF_PERICENTER":81.4631,"MEAN_ANOMALY":278.6498,"EPHEMERIS_TYPE":0,"CLASSIFICATION_TYPE":"U","NORAD_CAT_ID":54194,"ELEMENT_SET_NO":999,"REV_AT_EPOCH":18603,"BSTAR":0.00012899367,"MEAN_MOTION_DOT":1.766e-5,"MEAN_MOTION_DDOT":0},{"OBJECT_NAME":"JILIN-01 KUANFU 02B 5","OBJECT_ID":"2024-169E","EPOCH":"2026-03-09T22:46:28.718400","MEAN_MOTION":15.09244096,"ECCENTRICITY":0.00111722,"INCLINATION":97.556,"RA_OF_ASC_NODE":160.0628,"ARG_OF_PERICENTER":294.0678,"MEAN_ANOMALY":65.9381,"EPHEMERIS_TYPE":0,"CLASSIFICATION_TYPE":"U","NORAD_CAT_ID":61193,"ELEMENT_SET_NO":999,"REV_AT_EPOCH":8086,"BSTAR":0.00034816655,"MEAN_MOTION_DOT":5.486e-5,"MEAN_MOTION_DDOT":0}]
